[{"OBJECT_NAME":"POLYITAN-1","OBJECT_ID":"2014-033AJ","EPOCH":"2026-03-09T22:27:50.258304","MEAN_MOTION":15.29568085,"ECCENTRICITY":0.00093607,"INCLINATION":98.1053,"RA_OF_ASC_NODE":86.0432,"ARG_OF_PERICENTER":127.248,"MEAN_ANOMALY":232.9614,"EPHEMERIS_TYPE":0,"CLASSIFICATION_TYPE":"U","NORAD_CAT_ID":40042,"ELEMENT_SET_NO":999,"REV_AT_EPOCH":63840,"BSTAR":0.00083772474,"MEAN_MOTION_DOT":0.00024003,"MEAN_MOTION_DDOT":0},{"OBJECT_NAME":"STARLINK-1564","OBJECT_ID":"2020-055AH","EPOCH":"2026-03-09T08:33:11.590560","MEAN_MOTION":15.3019367,"ECCENTRICITY":0.00010612,"INCLINATION":53.1603,"RA_OF_ASC_NODE":115.9195,"ARG_OF_PERICENTER":70.7745,"MEAN_ANOMALY":289.3371,"EPHEMERIS_TYPE":0,"CLASSIFICATION_TYPE":"U","NORAD_CAT_ID":46058,"ELEMENT_SET_NO":999,"REV_AT_EPOCH":30901,"BSTAR":4.5125857e-5,"MEAN_MOTION_DOT":9.77e-6,"MEAN_MOTION_DDOT":0}]
